{"type": "FeatureCollection", "features": [ {"type": "Feature", "properties": {"norad_id": 67223, "name": "ELECTRON KICK STAGE R/B", "group": "last-30-days", "lat": 28.066255968668408, "lon": 91.8084926530386, "alt_km": 301.4687909538943, "timestamp": "2025-12-21T07:34:33.305330+00:00", "meta": {"OBJECT_NAME": "ELECTRON KICK STAGE R/B", "OBJECT_ID": "2025-305E", "EPOCH": "2025-12-20T06:12:15.244992", "MEAN_MOTION": 15.47983126, "ECCENTRICITY": 0.01793228, "INCLINATION": 44.9975, "RA_OF_ASC_NODE": 310.0187, "ARG_OF_PERICENTER": 148.745, "MEAN_ANOMALY": 212.425, "EPHEMERIS_TYPE": 0, "CLASSIFICATION_TYPE": "U", "NORAD_CAT_ID": 67223, "ELEMENT_SET_NO": 999, "REV_AT_EPOCH": 32, "BSTAR": 0.0001630388, "MEAN_MOTION_DOT": 0.00016328, "MEAN_MOTION_DDOT": 0}, "tle": {"line1": "1 67223U 25305E   25354.25850978  .00016328  00000+0  16304-3 0  9994", "line2": "2 67223  44.9975 310.0187 0179322 148.7450 212.4250 15.47983126   320"}}, "geometry": {"type": "Point", "coordinates": [91.8084926530386, 28.066255968668408]}}, {"type": "Feature", "properties": {"norad_id": 67224, "name": "ELECTRON R/B", "group": "last-30-days", "lat": -24.87756384261927, "lon": -84.0627397473766, "alt_km": 218.25494710501607, "timestamp": "2025-12-21T07:34:33.305339+00:00", "meta": {"OBJECT_NAME": "ELECTRON R/B", "OBJECT_ID": "2025-305F", "EPOCH": "2025-12-18T18:27:13.126752", "MEAN_MOTION": 15.64663678, "ECCENTRICITY": 0.0262888, "INCLINATION": 45.0188, "RA_OF_ASC_NODE": 318.3021, "ARG_OF_PERICENTER": 280.1207, "MEAN_ANOMALY": 77.0133, "EPHEMERIS_TYPE": 0, "CLASSIFICATION_TYPE": "U", "NORAD_CAT_ID": 67224, "ELEMENT_SET_NO": 999, "REV_AT_EPOCH": 9, "BSTAR": 0.00022935, "MEAN_MOTION_DOT": 0.00172783, "MEAN_MOTION_DDOT": 8.6369e-06}, "tle": {"line1": "1 67224U 25305F   25352.76890193  .00172783  86369-5  22935-3 0  9995", "line2": "2 67224  45.0188 318.3021 0262888 280.1207  77.0133 15.64663678    93"}}, "geometry": {"type": "Point", "coordinates": [-84.0627397473766, -24.87756384261927]}}, {"type": "Feature", "properties": {"norad_id": 67226, "name": "TJS-23", "group": "last-30-days", "lat": -3.4894309366604985, "lon": -72.9914336176304, "alt_km": 42015.446802500046, "timestamp": "2025-12-21T07:34:33.305349+00:00", "meta": {"OBJECT_NAME": "TJS-23", "OBJECT_ID": "2025-306A", "EPOCH": "2025-12-20T20:00:40.923072", "MEAN_MOTION": 1.72702831, "ECCENTRICITY": 0.7754102, "INCLINATION": 16.4095, "RA_OF_ASC_NODE": 299.0446, "ARG_OF_PERICENTER": 179.5478, "MEAN_ANOMALY": 182.6158, "EPHEMERIS_TYPE": 0, "CLASSIFICATION_TYPE": "U", "NORAD_CAT_ID": 67226, "ELEMENT_SET_NO": 999, "REV_AT_EPOCH": 2, "BSTAR": 0.00066611, "MEAN_MOTION_DOT": 3.034e-05, "MEAN_MOTION_DDOT": 0}, "tle": {"line1": "1 67226U 25306A   25354.83380698  .00003034  00000+0  66611-3 0  9995", "line2": "2 67226  16.4095 299.0446 7754102 179.5478 182.6158  1.72702831    25"}}, "geometry": {"type": "Point", "coordinates": [-72.9914336176304, -3.4894309366604985]}}, {"type": "Feature", "properties": {"norad_id": 67227, "name": "CZ-5 R/B", "group": "last-30-days", "lat": -0.3962109134765261, "lon": -62.55115008362768, "alt_km": 41666.5613125358, "timestamp": "2025-12-21T07:34:33.305360+00:00", "meta": {"OBJECT_NAME": "CZ-5 R/B", "OBJECT_ID": "2025-306B", "EPOCH": "2025-12-20T19:22:03.368352", "MEAN_MOTION": 1.92163474, "ECCENTRICITY": 0.75788222, "INCLINATION": 16.4229, "RA_OF_ASC_NODE": 298.9498, "ARG_OF_PERICENTER": 179.0262, "MEAN_ANOMALY": 184.9269, "EPHEMERIS_TYPE": 0, "CLASSIFICATION_TYPE": "U", "NORAD_CAT_ID": 67227, "ELEMENT_SET_NO": 999, "REV_AT_EPOCH": 2, "BSTAR": 0.00048545663, "MEAN_MOTION_DOT": 1.201e-05, "MEAN_MOTION_DDOT": 0}, "tle": {"line1": "1 67227U 25306B   25354.80698343  .00001201  00000+0  48546-3 0  9993", "line2": "2 67227  16.4229 298.9498 7578822 179.0262 184.9269  1.92163474    23"}}, "geometry": {"type": "Point", "coordinates": [-62.55115008362768, -0.3962109134765261]}}]}